GLOBALSTAR M067         
1 32263U 07048A   24181.54684157 -.00000044  00000+0  39244-3 0  9994
2 32263  51.9745 347.7678 0000491  25.3739  46.4313 12.40648458765713
GLOBALSTAR M070         
1 32264U 07048B   24181.56477706 -.00000065  00000+0  21546-3 0  9996
2 32264  51.9741 122.7137 0000794  42.1796 129.5818 12.62294998769130
GLOBALSTAR M066         
1 32265U 07048C   24181.58641102 -.00000079  00000+0  13807-3 0  9998
2 32265  51.9695 344.6140 0000961 120.7496 323.5004 12.62264383771405
GLOBALSTAR M068         
1 32266U 07048D   24181.60664722 -.00000029  00000+0  41697-3 0  9998
2 32266  51.9900 297.0141 0001519 100.8145 272.3182 12.62792870773303
GLOBALSTAR M079         
1 37188U 10054A   24181.59456490 -.00000075  00000+0  16161-3 0  9995
2 37188  52.0024 133.1327 0000222 351.0331 179.9093 12.62271354631926
GLOBALSTAR M074         
1 37189U 10054B   24181.62110749 -.00000089  00000+0  80945-4 0  9991
2 37189  52.0002 132.4304 0000417  34.6035 136.0734 12.62269821632609
GLOBALSTAR M076         
1 37190U 10054C   24181.64749053 -.00000097  00000+0  38816-4 0  9990
2 37190  52.0016 132.4877 0000574 343.0123 188.5288 12.62262277632255
GLOBALSTAR M077         
1 37191U 10054D   24181.47598421 -.00000093  00000+0  58940-4 0  9999
2 37191  52.0079  89.7646 0000704  46.3585 125.4257 12.62274128632606
